STARLINK-5546           
1 55632U 23021E   25074.29183161  .00001500  00000+0  13345-3 0  9992
2 55632  70.0005  30.6335 0002956 272.3064  87.7757 14.98343276114465
STARLINK-5546           
1 55632U 23021E   25074.89268540  .00001869  00000+0  16441-3 0  9991
2 55632  70.0001  29.1167 0002956 267.6947  92.3874 14.98319939114252
STARLINK-5546           
1 55632U 23021E   25074.89268540  .00001869  00000+0  16441-3 0  9991
2 55632  70.0001  29.1167 0002956 267.6947  92.3874 14.98319939114555
STARLINK-5546           
1 55632U 23021E   25075.56028553  .00000675  00000+0  64386-4 0  9990
2 55632  70.0014  27.4340 0002710 274.4489  85.6360 14.98327735114657
STARLINK-5546           
1 55632U 23021E   25075.89408388 -.00000708  00000+0 -51588-4 0  9993
2 55632  70.0014  26.5926 0002588 270.6912  89.3950 14.98334731114402
STARLINK-5546           
1 55632U 23021E   25075.96084419  .00000007  00000+0  83484-5 0  9997
2 55632  70.0014  26.4244 0002783 269.4825  90.6015 14.98331313114714
STARLINK-5546           
1 55632U 23021E   25076.29464149  .00001040  00000+0  94961-4 0  9995
2 55632  70.0016  25.5832 0002555 270.8272  89.2595 14.98333978114769
STARLINK-5546           
1 55632U 23021E   25076.89548047  .00002113  00000+0  18479-3 0  9992
2 55632  70.0010  24.0681 0002943 270.2049  89.8772 14.98331210114856
STARLINK-5546           
1 55632U 23021E   25077.16252114  .00002222  00000+0  19391-3 0  9995
2 55632  70.0012  23.3953 0002936 268.7953  91.2870 14.98331260114592
STARLINK-5546           
1 55632U 23021E   25077.29603766  .00002774  00000+0  24016-3 0  9994
2 55632  70.0017  23.0592 0002911 266.6433  93.4393 14.98335651114914
STARLINK-5546           
1 55632U 23021E   25077.83039768 -.00029920  00000+0 -25273-2 0  9998
2 55632  70.0016  21.7136 0000965 263.6125  96.4924 14.98076156114694
STARLINK-5546           
1 55632U 23021E   25077.89532852  .00281564  00000+0  21561-1 0  9993
2 55632  70.0017  21.5406 0011249 231.0084 129.0074 15.00237370115009
STARLINK-5546           
1 55632U 23021E   25078.25002315 -.00000662  00000+0 -47734-4 0  9993
2 55632  70.0029  20.6535 0002988 271.9045 192.5054 14.98320495114756
STARLINK-5546           
1 55632U 23021E   25078.36493501 -.00098894  00000+0 -85757-2 0  9995
2 55632  70.0032  20.3683 0002379 198.5597 161.5476 14.97520953114777
STARLINK-5546           
1 55632U 23021E   25078.36493501 -.00098894  00000+0 -85757-2 0  9995
2 55632  70.0032  20.3683 0002379 198.5597 161.5476 14.97520953115071
STARLINK-5546           
1 55632U 23021E   25078.91667824 -.00015083  00000+0 -12578-2 0  9997
2 55632  70.0029  18.9728 0003043 265.1686 194.1224 14.98367234114859
STARLINK-5546           
1 55632U 23021E   25078.91667824 -.00015083  00000+0 -12578-2 0  9997
2 55632  70.0029  18.9728 0003043 265.1686 194.1224 14.98367234  5814
STARLINK-5546           
1 55632U 23021E   25079.09836331  .00041394  00000+0  34307-2 0  9994
2 55632  70.0044  18.5147 0003723 255.3345 104.7402 14.98618679114885
STARLINK-5546           
1 55632U 23021E   25079.56623251 -.00107860  00000+0 -92895-2 0  9990
2 55632  70.0047  17.3396 0002391 231.3649 128.7296 14.97838089114955
STARLINK-5546           
1 55632U 23021E   25079.56623251 -.00107860  00000+0 -92895-2 0  9990
2 55632  70.0047  17.3396 0002391 231.3649 128.7296 14.97838089115259
STARLINK-5546           
1 55632U 23021E   25079.76642861  .00148826  00000+0  12280-1 0  9994
2 55632  70.0046  16.8349 0004317 214.8438 145.2439 14.98130702114982
STARLINK-5546           
1 55632U 23021E   25079.76642861  .00148826  00000+0  12280-1 0  9994
2 55632  70.0046  16.8349 0004317 214.8438 145.2439 14.98130702115286
STARLINK-5546           
1 55632U 23021E   25080.83443792 -.00019344  00000+0 -16147-2 0  9997
2 55632  70.0011  14.1471 0003388 290.3508  69.7287 14.98403771115144
STARLINK-5546           
1 55632U 23021E   25080.90120574  .00002557  00000+0  22214-3 0  9994
2 55632  70.0030  13.9774 0003605 300.5936  59.4867 14.98307639115459
STARLINK-5546           
1 55632U 23021E   25081.25001157 -.00011246  00000+0 -93624-3 0  9998
2 55632  70.0025  13.0899 0003106 272.6577 169.0513 14.98330679115207
STARLINK-5546           
1 55632U 23021E   25081.58335648  .00063597  00000+0  52932-2 0  9999
2 55632  70.0025  12.2495 0003054 264.0938 175.1916 14.98303183  5818
STARLINK-5546           
1 55632U 23021E   25081.91667824 -.00058506  00000+0 -49279-2 0  9996
2 55632  70.0027  11.4091 0003148 265.7820 170.9152 14.98397070115304
STARLINK-5546           
1 55632U 23021E   25081.91667824 -.00058506  00000+0 -49279-2 0  9996
2 55632  70.0027  11.4091 0003148 265.7820 170.9152 14.98397070  5818
STARLINK-5546           
1 55632U 23021E   25082.16953241 -.00010520  00000+0 -87349-3 0  9990
2 55632  70.0033  10.7744 0002840 258.8105 101.2734 14.98403854115340
STARLINK-5546           
1 55632U 23021E   25082.50331591 -.00020610  00000+0 -17222-2 0  9999
2 55632  70.0037   9.9338 0003506 259.2654 100.8111 14.98380872115693
STARLINK-5546           
1 55632U 23021E   25082.83710858 -.00022885  00000+0 -19146-2 0  9995
2 55632  70.0047   9.0952 0003095 250.5479 109.5346 14.98367143115444
STARLINK-5546           
1 55632U 23021E   25082.90386925 -.00021100  00000+0 -17644-2 0  9997
2 55632  70.0049   8.9266 0003287 258.2528 101.8263 14.98361142115755
STARLINK-5546           
1 55632U 23021E   25083.58335648  .00062659  00000+0  52164-2 0  9996
2 55632  70.0026   7.2068 0003166 268.7845 155.3258 14.98299485115552
STARLINK-5546           
1 55632U 23021E   25083.58335648  .00062659  00000+0  52164-2 0  9996
2 55632  70.0026   7.2068 0003166 268.7845 155.3258 14.98299485  5819
STARLINK-5546           
1 55632U 23021E   25083.66668981  .00084548  00000+0  70130-2 0  9998
2 55632  70.0025   6.9967 0003185 267.8122 245.6699 14.98305087  5628
STARLINK-5546           
1 55632U 23021E   25083.97421427 -.00407781  00000+0 -38677-1 0  9993
2 55632  70.0042   6.2354 0001257 223.2096 136.8963 14.95772676115619
STARLINK-5546           
1 55632U 23021E   25084.50001157  .00009429  00000+0  79738-3 0  9997
2 55632  70.0027   4.8954 0003189 264.4215  62.7454 14.98307653115690
STARLINK-5546           
1 55632U 23021E   25084.50001157  .00009429  00000+0  79738-3 0  9997
2 55632  70.0027   4.8954 0003189 264.4215  62.7454 14.98307653  5755
STARLINK-5546           
1 55632U 23021E   25084.77340539 -.00094239  00000+0 -80873-2 0  9992
2 55632  70.0031   4.2084 0006532 240.0969 119.9541 14.97878803115730
STARLINK-5546           
1 55632U 23021E   25084.77340539 -.00094239  00000+0 -80873-2 0  9992
2 55632  70.0031   4.2084 0006532 240.0969 119.9541 14.97878803116034
STARLINK-5546           
1 55632U 23021E   25085.25002315  .00038461  00000+0  32148-2 0  9998
2 55632  70.0029   3.0045 0003218 268.1094 143.3845 14.98313745115805
STARLINK-5546           
1 55632U 23021E   25085.50737283  .00087731  00000+0  72040-2 0  9994
2 55632  70.0060   2.3527 0004189 303.4319  56.6439 14.98673590115844
STARLINK-5546           
1 55632U 23021E   25085.50737283  .00087731  00000+0  72040-2 0  9994
2 55632  70.0060   2.3527 0004189 303.4319  56.6439 14.98673590116148
STARLINK-5546           
1 55632U 23021E   25086.17511853  .00004431  00000+0  37879-3 0  9999
2 55632  70.0038   0.6739 0002457 272.9991  87.0887 14.98345460115945
STARLINK-5546           
1 55632U 23021E   25086.17511853  .00004431  00000+0  37879-3 0  9999
2 55632  70.0038   0.6739 0002457 272.9991  87.0887 14.98345460116249
STARLINK-5546           
1 55632U 23021E   25086.70920152  .00006266  00000+0  53237-3 0  9998
2 55632  70.0059 359.3304 0002268 284.9892  75.1016 14.98337392116020
STARLINK-5546           
1 55632U 23021E   25086.70920152  .00006266  00000+0  53237-3 0  9998
2 55632  70.0059 359.3304 0002268 284.9892  75.1016 14.98337392116323
STARLINK-5546           
1 55632U 23021E   25087.17640544  .00061704  00000+0  50990-2 0  9994
2 55632  70.0043 358.1466 0007312 270.8678  89.1644 14.98577148116094
STARLINK-5546           
1 55632U 23021E   25087.50002315  .00024055  00000+0  20178-2 0  9992
2 55632  70.0031 357.3322 0003068 271.5008  33.0676 14.98312002116147
STARLINK-5546           
1 55632U 23021E   25087.50002315  .00024055  00000+0  20178-2 0  9992
2 55632  70.0031 357.3322 0003068 271.5008  33.0676 14.98312002  5740
STARLINK-5546           
1 55632U 23021E   25087.71092447 -.00110520  00000+0 -95277-2 0  9997
2 55632  70.0047 356.7956 0001613 219.9820 140.1221 14.97818332116177
STARLINK-5546           
1 55632U 23021E   25087.71092447 -.00110520  00000+0 -95277-2 0  9997
2 55632  70.0047 356.7956 0001613 219.9820 140.1221 14.97818332116470
STARLINK-5546           
1 55632U 23021E   25088.25002315 -.00006864  00000+0 -56794-3 0  9999
2 55632  70.0026 355.4415 0003082 274.9259 113.9748 14.98336236116259
STARLINK-5546           
1 55632U 23021E   25088.50002315  .00029711  00000+0  24882-2 0  9993
2 55632  70.0027 354.8112 0003015 269.7352  27.2920 14.98316257  5593
STARLINK-5546           
1 55632U 23021E   25088.91668981 -.00057021  00000+0 -48045-2 0  9999
2 55632  70.0028 353.7608 0003081 270.9905 112.8856 14.98374216  5669
STARLINK-5546           
1 55632U 23021E   25089.33335648 -.00042592  00000+0 -35823-2 0  9994
2 55632  70.0021 352.7102 0003008 274.9826 195.7650 14.98342771116414
STARLINK-5546           
1 55632U 23021E   25089.33335648 -.00042592  00000+0 -35823-2 0  9994
2 55632  70.0021 352.7102 0003008 274.9826 195.7650 14.98342771  5725
STARLINK-5546           
1 55632U 23021E   25089.84693068  .00007658  00000+0  64938-3 0  9995
2 55632  70.0010 351.4156 0002837 268.4362  91.6472 14.98300965116795
STARLINK-5546           
1 55632U 23021E   25090.11395799  .00000389  00000+0  40376-4 0  9992
2 55632  70.0009 350.7422 0002911 271.8392  88.2434 14.98332150116538
STARLINK-5546           
1 55632U 23021E   25090.44775794  .00000341  00000+0  36331-4 0  9999
2 55632  70.0008 349.9007 0002915 272.1083  87.9743 14.98331536116885
